NORAD_CAT_ID,OBJECT_NAME,OBJECT_TYPE,EPOCH,MEAN_MOTION,ECCENTRICITY,INCLINATION,RA_OF_ASC_NODE,ARG_OF_PERICENTER,MEAN_ANOMALY,BSTAR,MEAN_MOTION_DOT,MEAN_MOTION_DDOT,TLE_LINE0,TLE_LINE1,TLE_LINE2,SEMIMAJOR_AXIS,PERIOD,APOGEE,PERIGEE,DECAYED
51868.0,STARLINK-3578,PAYLOAD,2023-11-01 15:14:45,15.08837645,0.0001684,53.2165,265.5635,92.8565,267.262,6.7845e-05,7.92e-06,0.0,0 STARLINK-3578,1 51868U 22022S   23305.63524441  .00000792  00000-0  67845-4 0  9990,2 51868  53.2165 265.5635 0001684  92.8565 267.2620 15.08837645 93428,6917.888,95.438,540.918,538.588,0.0
51868.0,STARLINK-3578,PAYLOAD,2023-11-02 03:57:49,15.08847024,0.0001576,53.2167,263.1855,97.8366,262.2805,0.00021881,3.197e-05,0.0,0 STARLINK-3578,1 51868U 22022S   23306.16516112  .00003197  00000-0  21881-3 0  9996,2 51868  53.2167 263.1855 0001576  97.8366 262.2805 15.08847024 93503,6917.859,95.437,540.814,538.634,0.0
51868.0,STARLINK-3578,PAYLOAD,2023-11-02 21:27:04,15.08842423,0.0001523,53.2168,259.9148,93.023,267.0936,0.00019406,2.802e-05,0.0,0 STARLINK-3578,1 51868U 22022S   23306.89380287  .00002802  00000-0  19406-3 0  9990,2 51868  53.2168 259.9148 0001523  93.0230 267.0936 15.08842423 93610,6917.873,95.437,540.792,538.684,0.0
51868.0,STARLINK-3578,PAYLOAD,2023-11-03 13:20:55,15.08845922,0.0001419,53.2165,256.9417,95.1451,264.9703,0.00012495,1.702e-05,0.0,0 STARLINK-3578,1 51868U 22022S   23307.55619931  .00001702  00000-0  12495-3 0  9994,2 51868  53.2165 256.9417 0001419  95.1451 264.9703 15.08845922 93711,6917.862,95.437,540.709,538.746,0.0
51868.0,STARLINK-3578,PAYLOAD,2023-11-03 21:17:51,15.08839001,0.0001609,53.2185,255.4601,95.8246,264.293,4.6679e-05,4.55e-06,0.0,0 STARLINK-3578,1 51868U 22022S   23307.88740266  .00000455  00000-0  46679-4 0  9992,2 51868  53.2185 255.4601 0001609  95.8246 264.2930 15.08839001 93763,6917.883,95.438,540.862,538.635,0.0
51868.0,STARLINK-3578,PAYLOAD,2023-11-04 03:39:23,15.08845997,0.0001325,53.2162,254.2664,91.4962,268.6182,0.00014565,2.031e-05,0.0,0 STARLINK-3578,1 51868U 22022S   23308.15235964  .00002031  00000-0  14565-3 0  9997,2 51868  53.2162 254.2664 0001325  91.4962 268.6182 15.08845997 93809,6917.862,95.437,540.644,538.81,0.0
51868.0,STARLINK-3578,PAYLOAD,2023-11-04 13:11:42,15.08843302,0.0001304,53.2164,252.4827,85.6741,274.4401,0.00016759,2.381e-05,0.0,0 STARLINK-3578,1 51868U 22022S   23308.54979980  .00002381  00000-0  16759-3 0  9998,2 51868  53.2164 252.4827 0001304  85.6741 274.4401 15.08843302 93862,6917.87,95.437,540.637,538.833,0.0
51868.0,STARLINK-3578,PAYLOAD,2023-11-05 06:40:56,15.08855665,0.0001376,53.2159,249.2101,84.5223,275.5926,0.00037449,5.68e-05,0.0,0 STARLINK-3578,1 51868U 22022S   23309.27843692  .00005680  00000-0  37449-3 0  9993,2 51868  53.2159 249.2101 0001376  84.5223 275.5926 15.08855665 93978,6917.833,95.437,540.649,538.746,0.0
51868.0,STARLINK-3578,PAYLOAD,2023-11-05 13:02:30,15.08837595,0.0001989,53.2164,248.0211,91.7544,268.3676,4.4115e-05,4.14e-06,0.0,0 STARLINK-3578,1 51868U 22022S   23309.54340478  .00000414  00000-0  44115-4 0  9996,2 51868  53.2164 248.0211 0001989  91.7544 268.3676 15.08837595 94019,6917.888,95.438,541.129,538.377,0.0
51868.0,STARLINK-3578,PAYLOAD,2023-11-06 03:20:56,15.08892401,0.0001433,53.2154,245.3446,96.8311,263.2844,0.0011687,0.00018387,0.0,0 STARLINK-3578,1 51868U 22022S   23310.13954112  .00018387  00000-0  11687-2 0  9993,2 51868  53.2154 245.3446 0001433  96.8311 263.2844 15.08892401 94108,6917.72,95.434,540.577,538.594,0.0
51868.0,STARLINK-3578,PAYLOAD,2023-11-06 12:53:14,15.08880888,0.0002248,53.2153,243.5576,74.7649,285.3591,0.00067726,0.00010519,0.0,0 STARLINK-3578,1 51868U 22022S   23310.53697697  .00010519  00000-0  67726-3 0  9994,2 51868  53.2153 243.5576 0002248  74.7649 285.3591 15.08880888 94161,6917.755,95.435,541.176,538.065,0.0
51868.0,STARLINK-3578,PAYLOAD,2023-11-07 03:11:44,15.08814494,0.0001418,53.2151,240.8866,84.17,275.9453,-0.0010479,-0.00016915,0.0,0 STARLINK-3578,1 51868U 22022S   23311.13315209 -.00016915  00000-0 -10479-2 0  9997,2 51868  53.2151 240.8866 0001418  84.1700 275.9453 15.08814494 94254,6917.958,95.439,540.804,538.842,0.0
51868.0,STARLINK-3578,PAYLOAD,2023-11-07 12:44:03,15.0881079,0.0001353,53.2157,239.1003,93.1478,266.9669,-0.00058741,-9.617e-05,0.0,0 STARLINK-3578,1 51868U 22022S   23311.53060060 -.00009617  00000-0 -58741-3 0  9999,2 51868  53.2157 239.1003 0001353  93.1478 266.9669 15.08810790 94315,6917.97,95.439,540.771,538.899,0.0
51868.0,STARLINK-3578,PAYLOAD,2023-11-08 01:27:10,15.08813321,0.000165,53.2165,236.7252,74.088,286.0294,0.00034497,5.203e-05,0.0,0 STARLINK-3578,1 51868U 22022S   23312.06053472  .00005203  00000-0  34497-3 0  9994,2 51868  53.2165 236.7252 0001650  74.0880 286.0294 15.08813321 94396,6917.962,95.439,540.968,538.685,0.0
51868.0,STARLINK-3578,PAYLOAD,2023-11-08 04:37:57,15.08783118,0.0001107,53.2161,236.1268,83.6618,276.45,-0.00034001,-5.686e-05,0.0,0 STARLINK-3578,1 51868U 22022S   23312.19302451 -.00005686  00000-0 -34001-3 0  9990,2 51868  53.2161 236.1268 0001107  83.6618 276.4500 15.08783118 94411,6918.054,95.441,540.685,539.153,0.0
51868.0,STARLINK-3578,PAYLOAD,2023-11-08 22:07:11,15.08836811,0.0001048,53.2157,232.8599,45.2717,314.8361,0.00083412,0.00013011,0.0,0 STARLINK-3578,1 51868U 22022S   23312.92166185  .00013011  00000-0  83412-3 0  9992,2 51868  53.2157 232.8599 0001048  45.2717 314.8361 15.08836811 94527,6917.89,95.438,540.48,539.03,0.0
51868.0,STARLINK-3578,PAYLOAD,2023-11-09 01:17:57,15.08863906,0.0001117,53.2158,232.2611,69.3041,290.8071,0.0014848,0.00023437,0.0,0 STARLINK-3578,1 51868U 22022S   23313.05413687  .00023437  00000-0  14848-2 0  9998,2 51868  53.2158 232.2611 0001117  69.3041 290.8071 15.08863906 94549,6917.807,95.436,540.445,538.9,0.0
51868.0,STARLINK-3578,PAYLOAD,2023-11-09 21:57:57,15.08858843,0.0001215,53.2165,228.3939,60.9132,299.1982,0.00036081,5.462e-05,0.0,0 STARLINK-3578,1 51868U 22022S   23313.91524952  .00005462  00000-0  36081-3 0  9993,2 51868  53.2165 228.3939 0001215  60.9132 299.1982 15.08858843 94674,6917.823,95.436,540.528,538.847,0.0
51868.0,STARLINK-3578,PAYLOAD,2023-11-10 01:08:44,15.08859083,0.0001276,53.2163,227.7999,71.7933,288.3198,0.00050271,7.726e-05,0.0,0 STARLINK-3578,1 51868U 22022S   23314.04773176  .00007726  00000-0  50271-3 0  9994,2 51868  53.2163 227.7999 0001276  71.7933 288.3198 15.08859083 94695,6917.822,95.436,540.57,538.804,0.0
51868.0,STARLINK-3578,PAYLOAD,2023-11-10 04:19:30,15.08861798,0.0001258,53.2163,227.2048,69.5132,290.5995,0.00040435,6.157e-05,0.0,0 STARLINK-3578,1 51868U 22022S   23314.18020852  .00006157  00000-0  40435-3 0  9993,2 51868  53.2163 227.2048 0001258  69.5132 290.5995 15.08861798 94710,6917.814,95.436,540.549,538.809,0.0
51868.0,STARLINK-3578,PAYLOAD,2023-11-10 21:48:44,15.08850284,0.0001842,53.2163,223.928,122.4354,237.6816,-0.00034394,-5.759e-05,0.0,0 STARLINK-3578,1 51868U 22022S   23314.90884516 -.00005759  00000-0 -34394-3 0  9994,2 51868  53.2163 223.9280 0001842 122.4354 237.6816 15.08850284 94829,6917.849,95.437,540.988,538.44,0.0
51868.0,STARLINK-3578,PAYLOAD,2023-11-11 00:59:30,15.08845213,0.0001321,53.216,223.3407,99.6242,260.49,-3.1385e-05,-7.87e-06,0.0,0 STARLINK-3578,1 51868U 22022S   23315.04132466 -.00000787  00000-0 -31385-4 0  9994,2 51868  53.2160 223.3407 0001321  99.6242 260.4900 15.08845213 94840,6917.864,95.437,540.643,538.816,0.0
51868.0,STARLINK-3578,PAYLOAD,2023-11-11 10:31:49,15.08846084,0.0001282,53.2157,221.557,99.8881,260.2256,-1.1183e-05,-4.66e-06,0.0,0 STARLINK-3578,1 51868U 22022S   23315.43876732 -.00000466  00000-0 -11183-4 0  9996,2 51868  53.2157 221.5570 0001282  99.8881 260.2256 15.08846084 94900,6917.862,95.437,540.614,538.84,0.0
51868.0,STARLINK-3578,PAYLOAD,2023-11-11 18:28:45,15.08830136,0.0001316,53.216,220.0691,91.9442,268.1701,-0.00017317,-3.042e-05,0.0,0 STARLINK-3578,1 51868U 22022S   23315.76997265 -.00003042  00000-0 -17317-3 0  9994,2 51868  53.2160 220.0691 0001316  91.9442 268.1701 15.08830136 94954,6917.911,95.438,540.686,538.865,0.0
51868.0,STARLINK-3578,PAYLOAD,2023-11-11 21:39:31,15.0883339,0.0001362,53.2163,219.4735,102.4951,257.6193,-7.9105e-05,-1.546e-05,0.0,0 STARLINK-3578,1 51868U 22022S   23315.90245139 -.00001546  00000-0 -79105-4 0  9997,2 51868  53.2163 219.4735 0001362 102.4951 257.6193 15.08833390 94977,6917.901,95.438,540.708,538.823,0.0
51868.0,STARLINK-3578,PAYLOAD,2023-11-12 10:22:37,15.08839481,0.0001303,53.2163,217.0954,104.208,255.9057,0.00016547,2.347e-05,0.0,0 STARLINK-3578,1 51868U 22022S   23316.43237458  .00002347  00000-0  16547-3 0  9999,2 51868  53.2163 217.0954 0001303 104.2080 255.9057 15.08839481 95059,6917.882,95.438,540.648,538.846,0.0
51868.0,STARLINK-3578,PAYLOAD,2023-11-12 16:44:09,15.08840812,0.0001356,53.2158,215.907,97.5639,262.5508,0.0002656,3.942e-05,0.0,0 STARLINK-3578,1 51868U 22022S   23316.69733551  .00003942  00000-0  26560-3 0  9990,2 51868  53.2158 215.9070 0001356  97.5639 262.5508 15.08840812 95090,6917.878,95.438,540.681,538.805,0.0
51868.0,STARLINK-3578,PAYLOAD,2023-11-12 21:30:19,15.08843835,0.0001385,53.2157,215.0148,98.7355,261.3794,0.00022168,3.242e-05,0.0,0 STARLINK-3578,1 51868U 22022S   23316.89605423  .00003242  00000-0  22168-3 0  9991,2 51868  53.2157 215.0148 0001385  98.7355 261.3794 15.08843835 95122,6917.869,95.437,540.692,538.776,0.0
51868.0,STARLINK-3578,PAYLOAD,2023-11-13 02:16:28,15.0885274,0.0001447,53.2157,214.1226,95.5787,264.5371,0.00050352,7.737e-05,0.0,0 STARLINK-3578,1 51868U 22022S   23317.09477238  .00007737  00000-0  50352-3 0  9994,2 51868  53.2157 214.1226 0001447  95.5787 264.5371 15.08852740 95156,6917.841,95.437,540.707,538.705,0.0
51868.0,STARLINK-3578,PAYLOAD,2023-11-14 02:07:15,15.08848223,0.0001352,53.2155,209.6615,100.6631,259.4513,0.00029775,4.455e-05,0.0,0 STARLINK-3578,1 51868U 22022S   23318.08837234  .00004455  00000-0  29775-3 0  9999,2 51868  53.2155 209.6615 0001352 100.6631 259.4513 15.08848223 95305,6917.855,95.437,540.656,538.785,0.0
